[{"OBJECT_NAME":"STARLINK-5842","OBJECT_ID":"2023-064AV","EPOCH":"2026-03-09T11:55:29.925696","MEAN_MOTION":14.98329375,"ECCENTRICITY":0.00029733,"INCLINATION":69.9993,"RA_OF_ASC_NODE":104.9449,"ARG_OF_PERICENTER":261.9443,"MEAN_ANOMALY":98.1379,"EPHEMERIS_TYPE":0,"CLASSIFICATION_TYPE":"U","NORAD_CAT_ID":56491,"ELEMENT_SET_NO":999,"REV_AT_EPOCH":15620,"BSTAR":-1.9688752e-5,"MEAN_MOTION_DOT":-3.28e-6,"MEAN_MOTION_DDOT":0},{"OBJECT_NAME":"RROCI-2","OBJECT_ID":"2024-043J","EPOCH":"2026-03-09T21:40:56.693280","MEAN_MOTION":14.99383357,"ECCENTRICITY":0.00054118,"INCLINATION":97.8279,"RA_OF_ASC_NODE":200.9973,"ARG_OF_PERICENTER":337.3784,"MEAN_ANOMALY":22.7199,"EPHEMERIS_TYPE":0,"CLASSIFICATION_TYPE":"U","NORAD_CAT_ID":59106,"ELEMENT_SET_NO":999,"REV_AT_EPOCH":10988,"BSTAR":0.00035067832,"MEAN_MOTION_DOT":4.232e-5,"MEAN_MOTION_DDOT":0}]
